CCSDS_OMM_VERS = 2.0
CREATION_DATE  = 
ORIGINATOR     = 

OBJECT_NAME    = SL-16 R/B
OBJECT_ID      = 1992-093B
CENTER_NAME    = EARTH
REF_FRAME      = TEME
TIME_SYSTEM    = UTC
MEAN_ELEMENT_THEORY = SGP/SGP4

EPOCH          = 2025-11-01T14:43:17.212224
MEAN_MOTION    = 14.15417713
ECCENTRICITY   = .00034453
INCLINATION    = 71.0201
RA_OF_ASC_NODE = 273.1255
ARG_OF_PERICENTER = 175.5924
MEAN_ANOMALY   = 184.5230

EPHEMERIS_TYPE = 0
CLASSIFICATION_TYPE = U
NORAD_CAT_ID   = 22285
ELEMENT_SET_NO = 999
REV_AT_EPOCH   = 69503
BSTAR          = -.2177099E-5
MEAN_MOTION_DOT = -.52E-6
MEAN_MOTION_DDOT = 0

CCSDS_OMM_VERS = 2.0
CREATION_DATE  = 
ORIGINATOR     = 

OBJECT_NAME    = COSMOS 2228
OBJECT_ID      = 1992-094A
CENTER_NAME    = EARTH
REF_FRAME      = TEME
TIME_SYSTEM    = UTC
MEAN_ELEMENT_THEORY = SGP/SGP4

EPOCH          = 2025-11-01T13:42:34.152768
MEAN_MOTION    = 14.96453124
ECCENTRICITY   = .00184613
INCLINATION    = 82.5208
RA_OF_ASC_NODE = 359.9180
ARG_OF_PERICENTER = 18.2514
MEAN_ANOMALY   = 341.9366

EPHEMERIS_TYPE = 0
CLASSIFICATION_TYPE = U
NORAD_CAT_ID   = 22286
ELEMENT_SET_NO = 999
REV_AT_EPOCH   = 75689
BSTAR          = .27083909E-3
MEAN_MOTION_DOT = .3108E-4
MEAN_MOTION_DDOT = 0

CCSDS_OMM_VERS = 2.0
CREATION_DATE  = 
ORIGINATOR     = 

OBJECT_NAME    = SL-16 R/B
OBJECT_ID      = 1993-016B
CENTER_NAME    = EARTH
REF_FRAME      = TEME
TIME_SYSTEM    = UTC
MEAN_ELEMENT_THEORY = SGP/SGP4

EPOCH          = 2025-11-01T11:59:34.565568
MEAN_MOTION    = 14.15279458
ECCENTRICITY   = .00096232
INCLINATION    = 71.0051
RA_OF_ASC_NODE = 124.4170
ARG_OF_PERICENTER = 171.6240
MEAN_ANOMALY   = 188.5045

EPHEMERIS_TYPE = 0
CLASSIFICATION_TYPE = U
NORAD_CAT_ID   = 22566
ELEMENT_SET_NO = 999
REV_AT_EPOCH   = 68403
BSTAR          = -.54482815E-4
MEAN_MOTION_DOT = -.154E-5
MEAN_MOTION_DDOT = 0

CCSDS_OMM_VERS = 2.0
CREATION_DATE  = 
ORIGINATOR     = 

OBJECT_NAME    = COSMOS 2242
OBJECT_ID      = 1993-024A
CENTER_NAME    = EARTH
REF_FRAME      = TEME
TIME_SYSTEM    = UTC
MEAN_ELEMENT_THEORY = SGP/SGP4

EPOCH          = 2025-11-01T13:36:16.290144
MEAN_MOTION    = 14.95851382
ECCENTRICITY   = .00168423
INCLINATION    = 82.5222
RA_OF_ASC_NODE = 29.1831
ARG_OF_PERICENTER = 21.3024
MEAN_ANOMALY   = 338.8895

EPHEMERIS_TYPE = 0
CLASSIFICATION_TYPE = U
NORAD_CAT_ID   = 22626
ELEMENT_SET_NO = 999
REV_AT_EPOCH   = 76123
BSTAR          = .24874059E-3
MEAN_MOTION_DOT = .2811E-4
MEAN_MOTION_DDOT = 0

CCSDS_OMM_VERS = 2.0
CREATION_DATE  = 
ORIGINATOR     = 

OBJECT_NAME    = SL-16 R/B
OBJECT_ID      = 1993-059B
CENTER_NAME    = EARTH
REF_FRAME      = TEME
TIME_SYSTEM    = UTC
MEAN_ELEMENT_THEORY = SGP/SGP4

EPOCH          = 2025-11-01T07:12:27.321408
MEAN_MOTION    = 14.17202596
ECCENTRICITY   = .00155579
INCLINATION    = 70.9893
RA_OF_ASC_NODE = 281.8689
ARG_OF_PERICENTER = 39.4151
MEAN_ANOMALY   = 320.8101

EPHEMERIS_TYPE = 0
CLASSIFICATION_TYPE = U
NORAD_CAT_ID   = 22803
ELEMENT_SET_NO = 999
REV_AT_EPOCH   = 66134
BSTAR          = -.42129065E-4
MEAN_MOTION_DOT = -.133E-5
MEAN_MOTION_DDOT = 0

CCSDS_OMM_VERS = 2.0
CREATION_DATE  = 
ORIGINATOR     = 

OBJECT_NAME    = ARIANE 40 R/B
OBJECT_ID      = 1993-061H
CENTER_NAME    = EARTH
REF_FRAME      = TEME
TIME_SYSTEM    = UTC
MEAN_ELEMENT_THEORY = SGP/SGP4

EPOCH          = 2025-11-01T04:57:19.102176
MEAN_MOTION    = 14.32761778
ECCENTRICITY   = .00097287
INCLINATION    = 98.5125
RA_OF_ASC_NODE = 11.4825
ARG_OF_PERICENTER = 308.0457
MEAN_ANOMALY   = 51.9849

EPHEMERIS_TYPE = 0
CLASSIFICATION_TYPE = U
NORAD_CAT_ID   = 22830
ELEMENT_SET_NO = 999
REV_AT_EPOCH   = 67570
BSTAR          = .13632833E-3
MEAN_MOTION_DOT = .328E-5
MEAN_MOTION_DDOT = 0

CCSDS_OMM_VERS = 2.0
CREATION_DATE  = 
ORIGINATOR     = 

OBJECT_NAME    = COSMOS 2278
OBJECT_ID      = 1994-023A
CENTER_NAME    = EARTH
REF_FRAME      = TEME
TIME_SYSTEM    = UTC
MEAN_ELEMENT_THEORY = SGP/SGP4

EPOCH          = 2025-11-01T15:45:31.333824
MEAN_MOTION    = 14.14331021
ECCENTRICITY   = .00105488
INCLINATION    = 71.0518
RA_OF_ASC_NODE = 82.9588
ARG_OF_PERICENTER = 232.7955
MEAN_ANOMALY   = 127.2205

EPHEMERIS_TYPE = 0
CLASSIFICATION_TYPE = U
NORAD_CAT_ID   = 23087
ELEMENT_SET_NO = 999
REV_AT_EPOCH   = 62670
BSTAR          = .23439143E-4
MEAN_MOTION_DOT = -.2E-7
MEAN_MOTION_DDOT = 0

CCSDS_OMM_VERS = 2.0
CREATION_DATE  = 
ORIGINATOR     = 

OBJECT_NAME    = SL-16 R/B
OBJECT_ID      = 1994-023B
CENTER_NAME    = EARTH
REF_FRAME      = TEME
TIME_SYSTEM    = UTC
MEAN_ELEMENT_THEORY = SGP/SGP4

EPOCH          = 2025-11-01T11:29:41.666208
MEAN_MOTION    = 14.14992192
ECCENTRICITY   = .00020762
INCLINATION    = 71.0013
RA_OF_ASC_NODE = 340.1381
ARG_OF_PERICENTER = 179.4161
MEAN_ANOMALY   = 180.6965

EPHEMERIS_TYPE = 0
CLASSIFICATION_TYPE = U
NORAD_CAT_ID   = 23088
ELEMENT_SET_NO = 999
REV_AT_EPOCH   = 62795
BSTAR          = .72110366E-4
MEAN_MOTION_DOT = .92E-6
MEAN_MOTION_DDOT = 0

CCSDS_OMM_VERS = 2.0
CREATION_DATE  = 
ORIGINATOR     = 

OBJECT_NAME    = SL-16 R/B
OBJECT_ID      = 1994-074B
CENTER_NAME    = EARTH
REF_FRAME      = TEME
TIME_SYSTEM    = UTC
MEAN_ELEMENT_THEORY = SGP/SGP4

EPOCH          = 2025-11-01T08:03:07.723584
MEAN_MOTION    = 14.79217045
ECCENTRICITY   = .00051341
INCLINATION    = 97.7260
RA_OF_ASC_NODE = 336.2746
ARG_OF_PERICENTER = 282.4284
MEAN_ANOMALY   = 88.2676

EPHEMERIS_TYPE = 0
CLASSIFICATION_TYPE = U
NORAD_CAT_ID   = 23343
ELEMENT_SET_NO = 999
REV_AT_EPOCH   = 66827
BSTAR          = .99614519E-4
MEAN_MOTION_DOT = .69E-5
MEAN_MOTION_DDOT = 0

CCSDS_OMM_VERS = 2.0
CREATION_DATE  = 
ORIGINATOR     = 

OBJECT_NAME    = SL-16 R/B
OBJECT_ID      = 1994-077B
CENTER_NAME    = EARTH
REF_FRAME      = TEME
TIME_SYSTEM    = UTC
MEAN_ELEMENT_THEORY = SGP/SGP4

EPOCH          = 2025-11-01T13:56:57.001920
MEAN_MOTION    = 14.15538225
ECCENTRICITY   = .0003467
INCLINATION    = 70.9815
RA_OF_ASC_NODE = 261.9979
ARG_OF_PERICENTER = 316.8739
MEAN_ANOMALY   = 43.2112

EPHEMERIS_TYPE = 0
CLASSIFICATION_TYPE = U
NORAD_CAT_ID   = 23405
ELEMENT_SET_NO = 999
REV_AT_EPOCH   = 59810
BSTAR          = .10107031E-4
MEAN_MOTION_DOT = -.28E-6
MEAN_MOTION_DDOT = 0

CCSDS_OMM_VERS = 2.0
CREATION_DATE  = 
ORIGINATOR     = 

OBJECT_NAME    = ARIANE 40+ R/B
OBJECT_ID      = 1995-021B
CENTER_NAME    = EARTH
REF_FRAME      = TEME
TIME_SYSTEM    = UTC
MEAN_ELEMENT_THEORY = SGP/SGP4

EPOCH          = 2025-11-01T10:38:50.644608
MEAN_MOTION    = 14.39645912
ECCENTRICITY   = .00072473
INCLINATION    = 98.4700
RA_OF_ASC_NODE = 13.5223
ARG_OF_PERICENTER = 157.8555
MEAN_ANOMALY   = 213.2019

EPHEMERIS_TYPE = 0
CLASSIFICATION_TYPE = U
NORAD_CAT_ID   = 23561
ELEMENT_SET_NO = 999
REV_AT_EPOCH   = 60079
BSTAR          = .15534637E-3
MEAN_MOTION_DOT = .442E-5
MEAN_MOTION_DDOT = 0

CCSDS_OMM_VERS = 2.0
CREATION_DATE  = 
ORIGINATOR     = 

OBJECT_NAME    = SL-16 R/B
OBJECT_ID      = 1995-058B
CENTER_NAME    = EARTH
REF_FRAME      = TEME
TIME_SYSTEM    = UTC
MEAN_ELEMENT_THEORY = SGP/SGP4

EPOCH          = 2025-11-01T15:39:38.522880
MEAN_MOTION    = 14.15471703
ECCENTRICITY   = .00141862
INCLINATION    = 71.0199
RA_OF_ASC_NODE = 89.0626
ARG_OF_PERICENTER = 308.7354
MEAN_ANOMALY   = 51.2500

EPHEMERIS_TYPE = 0
CLASSIFICATION_TYPE = U
NORAD_CAT_ID   = 23705
ELEMENT_SET_NO = 999
REV_AT_EPOCH   = 54973
BSTAR          = .20270137E-3
MEAN_MOTION_DOT = .349E-5
MEAN_MOTION_DDOT = 0

